{
  "type": "FeatureCollection",
  "features": [
    {
      "type": "Feature",
      "properties": {
        "norad_id": 66625,
        "name": "STARLINK-35929",
        "group": "last-30-days",
        "lat": 19.194369661594813,
        "lon": -151.1062732532092,
        "alt_km": 397.6328496814258,
        "timestamp": "2025-12-11T08:58:25.855331+00:00",
        "meta_object_name": "STARLINK-35929",
        "meta_object_id": "2025-271J",
        "meta_epoch": "2025-12-11T04:00:01.998720",
        "meta_mean_motion": 15.56793626,
        "meta_eccentricity": 8.52e-05,
        "meta_inclination": 53.1597,
        "meta_ra_of_asc_node": 194.7658,
        "meta_arg_of_pericenter": 94.2119,
        "meta_mean_anomaly": 208.482,
        "meta_ephemeris_type": 0,
        "meta_classification_type": "U",
        "meta_norad_cat_id": 66625,
        "meta_element_set_no": 999,
        "meta_rev_at_epoch": 399,
        "meta_bstar": -0.032046,
        "meta_mean_motion_dot": -0.02082573,
        "meta_mean_motion_ddot": 0,
        "tle_line1": "1 66625U 25271J   25345.16668980 -.02082573  00000+0 -32046-1 0  9999",
        "tle_line2": "2 66625  53.1597 194.7658 0000852  94.2119 208.4820 15.56793626  3993"
      },
      "geometry": {
        "type": "Point",
        "coordinates": [
          -151.1062732532092,
          19.194369661594813
        ]
      }
    },
    {
      "type": "Feature",
      "properties": {
        "norad_id": 66626,
        "name": "STARLINK-35902",
        "group": "last-30-days",
        "lat": 20.67136899081351,
        "lon": -149.80789315282186,
        "alt_km": 397.32628050658786,
        "timestamp": "2025-12-11T08:58:25.855341+00:00",
        "meta_object_name": "STARLINK-35902",
        "meta_object_id": "2025-271K",
        "meta_epoch": "2025-12-11T04:00:01.998720",
        "meta_mean_motion": 15.56799269,
        "meta_eccentricity": 0.0001004,
        "meta_inclination": 53.1597,
        "meta_ra_of_asc_node": 194.762,
        "meta_arg_of_pericenter": 106.8275,
        "meta_mean_anomaly": 197.7816,
        "meta_ephemeris_type": 0,
        "meta_classification_type": "U",
        "meta_norad_cat_id": 66626,
        "meta_element_set_no": 999,
        "meta_rev_at_epoch": 399,
        "meta_bstar": -0.032187,
        "meta_mean_motion_dot": -0.02091249,
        "meta_mean_motion_ddot": 0,
        "tle_line1": "1 66626U 25271K   25345.16668980 -.02091249  00000+0 -32187-1 0  9996",
        "tle_line2": "2 66626  53.1597 194.7620 0001004 106.8275 197.7816 15.56799269  3990"
      },
      "geometry": {
        "type": "Point",
        "coordinates": [
          -149.80789315282186,
          20.67136899081351
        ]
      }
    },
    {
      "type": "Feature",
      "properties": {
        "norad_id": 66627,
        "name": "STARLINK-35904",
        "group": "last-30-days",
        "lat": 22.137328995556086,
        "lon": -148.48542368956214,
        "alt_km": 397.01250288459414,
        "timestamp": "2025-12-11T08:58:25.855353+00:00",
        "meta_object_name": "STARLINK-35904",
        "meta_object_id": "2025-271L",
        "meta_epoch": "2025-12-11T04:00:01.998720",
        "meta_mean_motion": 15.56794634,
        "meta_eccentricity": 8.91e-05,
        "meta_inclination": 53.1599,
        "meta_ra_of_asc_node": 194.7579,
        "meta_arg_of_pericenter": 85.2209,
        "meta_mean_anomaly": 221.3035,
        "meta_ephemeris_type": 0,
        "meta_classification_type": "U",
        "meta_norad_cat_id": 66627,
        "meta_element_set_no": 999,
        "meta_rev_at_epoch": 383,
        "meta_bstar": -0.031986,
        "meta_mean_motion_dot": -0.02079221,
        "meta_mean_motion_ddot": 0,
        "tle_line1": "1 66627U 25271L   25345.16668980 -.02079221  00000+0 -31986-1 0  9999",
        "tle_line2": "2 66627  53.1599 194.7579 0000891  85.2209 221.3035 15.56794634  3837"
      },
      "geometry": {
        "type": "Point",
        "coordinates": [
          -148.48542368956214,
          22.137328995556086
        ]
      }
    },
    {
      "type": "Feature",
      "properties": {
        "norad_id": 66628,
        "name": "STARLINK-35862",
        "group": "last-30-days",
        "lat": 23.59518683125153,
        "lon": -147.13231195282938,
        "alt_km": 396.7894722026367,
        "timestamp": "2025-12-11T08:58:25.855364+00:00",
        "meta_object_name": "STARLINK-35862",
        "meta_object_id": "2025-271M",
        "meta_epoch": "2025-12-11T04:00:01.998720",
        "meta_mean_motion": 15.56794982,
        "meta_eccentricity": 9.6e-05,
        "meta_inclination": 53.16,
        "meta_ra_of_asc_node": 194.7539,
        "meta_arg_of_pericenter": 89.9572,
        "meta_mean_anomaly": 218.4874,
        "meta_ephemeris_type": 0,
        "meta_classification_type": "U",
        "meta_norad_cat_id": 66628,
        "meta_element_set_no": 999,
        "meta_rev_at_epoch": 399,
        "meta_bstar": -0.032057,
        "meta_mean_motion_dot": -0.02083397,
        "meta_mean_motion_ddot": 0,
        "tle_line1": "1 66628U 25271M   25345.16668980 -.02083397  00000+0 -32057-1 0  9999",
        "tle_line2": "2 66628  53.1600 194.7539 0000960  89.9572 218.4874 15.56794982  3999"
      },
      "geometry": {
        "type": "Point",
        "coordinates": [
          -147.13231195282938,
          23.59518683125153
        ]
      }
    },
    {
      "type": "Feature",
      "properties": {
        "norad_id": 66629,
        "name": "STARLINK-35956",
        "group": "last-30-days",
        "lat": 25.03972852493513,
        "lon": -145.74911203403232,
        "alt_km": 396.4715786638799,
        "timestamp": "2025-12-11T08:58:25.855374+00:00",
        "meta_object_name": "STARLINK-35956",
        "meta_object_id": "2025-271N",
        "meta_epoch": "2025-12-11T04:00:01.998720",
        "meta_mean_motion": 15.5680018,
        "meta_eccentricity": 0.0001049,
        "meta_inclination": 53.1599,
        "meta_ra_of_asc_node": 194.7507,
        "meta_arg_of_pericenter": 100.5331,
        "meta_mean_anomaly": 209.8268,
        "meta_ephemeris_type": 0,
        "meta_classification_type": "U",
        "meta_norad_cat_id": 66629,
        "meta_element_set_no": 999,
        "meta_rev_at_epoch": 399,
        "meta_bstar": -0.032223,
        "meta_mean_motion_dot": -0.02093428,
        "meta_mean_motion_ddot": 0,
        "tle_line1": "1 66629U 25271N   25345.16668980 -.02093428  00000+0 -32223-1 0  9991",
        "tle_line2": "2 66629  53.1599 194.7507 0001049 100.5331 209.8268 15.56800180  3993"
      },
      "geometry": {
        "type": "Point",
        "coordinates": [
          -145.74911203403232,
          25.03972852493513
        ]
      }
    },
    {
      "type": "Feature",
      "properties": {
        "norad_id": 66630,
        "name": "STARLINK-35949",
        "group": "last-30-days",
        "lat": 26.471754553909843,
        "lon": -144.33468562326584,
        "alt_km": 396.3477551815704,
        "timestamp": "2025-12-11T08:58:25.855387+00:00",
        "meta_object_name": "STARLINK-35949",
        "meta_object_id": "2025-271P",
        "meta_epoch": "2025-12-11T04:00:01.998720",
        "meta_mean_motion": 15.56799586,
        "meta_eccentricity": 9.32e-05,
        "meta_inclination": 53.1601,
        "meta_ra_of_asc_node": 194.7454,
        "meta_arg_of_pericenter": 94.9324,
        "meta_mean_anomaly": 217.3454,
        "meta_ephemeris_type": 0,
        "meta_classification_type": "U",
        "meta_norad_cat_id": 66630,
        "meta_element_set_no": 999,
        "meta_rev_at_epoch": 399,
        "meta_bstar": -0.032223,
        "meta_mean_motion_dot": -0.02093311,
        "meta_mean_motion_ddot": 0,
        "tle_line1": "1 66630U 25271P   25345.16668980 -.02093311  00000+0 -32223-1 0  9994",
        "tle_line2": "2 66630  53.1601 194.7454 0000932  94.9324 217.3454 15.56799586  3996"
      },
      "geometry": {
        "type": "Point",
        "coordinates": [
          -144.33468562326584,
          26.471754553909843
        ]
      }
    },
    {
      "type": "Feature",
      "properties": {
        "norad_id": 66631,
        "name": "STARLINK-35965",
        "group": "last-30-days",
        "lat": 27.88736970191086,
        "lon": -142.88414709978485,
        "alt_km": 396.02665968473957,
        "timestamp": "2025-12-11T08:58:25.855397+00:00",
        "meta_object_name": "STARLINK-35965",
        "meta_object_id": "2025-271Q",
        "meta_epoch": "2025-12-11T04:00:01.998720",
        "meta_mean_motion": 15.56801108,
        "meta_eccentricity": 0.000101,
        "meta_inclination": 53.1598,
        "meta_ra_of_asc_node": 194.7423,
        "meta_arg_of_pericenter": 105.496,
        "meta_mean_anomaly": 208.6962,
        "meta_ephemeris_type": 0,
        "meta_classification_type": "U",
        "meta_norad_cat_id": 66631,
        "meta_element_set_no": 999,
        "meta_rev_at_epoch": 399,
        "meta_bstar": -0.032253,
        "meta_mean_motion_dot": -0.02095218,
        "meta_mean_motion_ddot": 0,
        "tle_line1": "1 66631U 25271Q   25345.16668980 -.02095218  00000+0 -32253-1 0  9996",
        "tle_line2": "2 66631  53.1598 194.7423 0001010 105.4960 208.6962 15.56801108  3991"
      },
      "geometry": {
        "type": "Point",
        "coordinates": [
          -142.88414709978485,
          27.88736970191086
        ]
      }
    }
  ]
}